{
    "links": {
        "self": "http://www.neowsapp.com/rest/v1/neo/54017617?api_key=iIulBulltgU6a56xZRHN4H3l9WmuAYTsLGpBGhQ2"
    },
    "id": "54017617",
    "neo_reference_id": "54017617",
    "name": "(2020 MQ2)",
    "designation": "2020 MQ2",
    "nasa_jpl_url": "http://ssd.jpl.nasa.gov/sbdb.cgi?sstr=54017617",
    "absolute_magnitude_h": 24.524,
    "estimated_diameter": {
        "kilometers": {
            "estimated_diameter_min": 0.0330944354,
            "estimated_diameter_max": 0.0740014073
        },
        "meters": {
            "estimated_diameter_min": 33.0944354229,
            "estimated_diameter_max": 74.0014072826
        },
        "miles": {
            "estimated_diameter_min": 0.0205639224,
            "estimated_diameter_max": 0.0459823284
        },
        "feet": {
            "estimated_diameter_min": 108.5775475128,
            "estimated_diameter_max": 242.7867770689
        }
    },
    "is_potentially_hazardous_asteroid": false,
    "close_approach_data": [
        {
            "close_approach_date": "1951-06-23",
            "close_approach_date_full": "1951-Jun-23 08:30",
            "epoch_date_close_approach": -584638200000,
            "relative_velocity": {
                "kilometers_per_second": "14.3225223828",
                "kilometers_per_hour": "51561.080578188",
                "miles_per_hour": "32038.0503181524"
            },
            "miss_distance": {
                "astronomical": "0.1631165354",
                "lunar": "63.4523322706",
                "kilometers": "24401886.257619598",
                "miles": "15162629.0200345324"
            },
            "orbiting_body": "Earth"
        },
        {
            "close_approach_date": "2020-07-14",
            "close_approach_date_full": "2020-Jul-14 04:30",
            "epoch_date_close_approach": 1594701000000,
            "relative_velocity": {
                "kilometers_per_second": "8.3276406182",
                "kilometers_per_hour": "29979.5062254973",
                "miles_per_hour": "18628.0992988375"
            },
            "miss_distance": {
                "astronomical": "0.0437273317",
                "lunar": "17.0099320313",
                "kilometers": "6541515.683103479",
                "miles": "4064709.3624028502"
            },
            "orbiting_body": "Earth"
        },
        {
            "close_approach_date": "2020-11-22",
            "close_approach_date_full": "2020-Nov-22 08:40",
            "epoch_date_close_approach": 1606034400000,
            "relative_velocity": {
                "kilometers_per_second": "4.4804044993",
                "kilometers_per_hour": "16129.4561973837",
                "miles_per_hour": "10022.2168244243"
            },
            "miss_distance": {
                "astronomical": "0.4434495125",
                "lunar": "172.5018603625",
                "kilometers": "66339102.522538375",
                "miles": "41221206.854744575"
            },
            "orbiting_body": "Earth"
        }
    ],
    "orbital_data": {
        "orbit_id": "1",
        "orbit_determination_date": "2020-06-25 05:12:54",
        "first_observation_date": "2020-06-14",
        "last_observation_date": "2020-06-25",
        "data_arc_in_days": 11,
        "observations_used": 15,
        "orbit_uncertainty": "8",
        "minimum_orbit_intersection": ".0117236",
        "jupiter_tisserand_invariant": "4.473",
        "epoch_osculation": "2459020.5",
        "eccentricity": ".4017518889825477",
        "semi_major_axis": "1.489435516658419",
        "inclination": "1.701554985228536",
        "ascending_node_longitude": "262.3462174721298",
        "orbital_period": "663.9432888595037",
        "perihelion_distance": ".8910519843232022",
        "perihelion_argument": "78.38513216663485",
        "aphelion_distance": "2.087819048993636",
        "perihelion_time": "2459084.290608341127",
        "mean_anomaly": "325.4117762945485",
        "mean_motion": ".5422149843827689",
        "equinox": "J2000",
        "orbit_class": {
            "orbit_class_type": "APO",
            "orbit_class_description": "Near-Earth asteroid orbits which cross the Earth’s orbit similar to that of 1862 Apollo",
            "orbit_class_range": "a (semi-major axis) > 1.0 AU; q (perihelion) < 1.017 AU"
        }
    },
    "is_sentry_object": false
}